STARLINK-35206          
1 65614U 25207Y   25274.83335647 -.01600481  00000+0 -21194-1 0  9996
2 65614  97.6027 337.6897 0001635  65.6256 350.3078 15.61432007  3999
STARLINK-35174          
1 65615U 25207Z   25274.83335647 -.01598633  00000+0 -21167-1 0  9992
2 65615  97.6028 337.6906 0001595  67.4497 350.4042 15.61431205  4109
CYGNUS NG-23            
1 65616U 25208A   25274.11280702  .00018412  00000+0  33478-3 0  9995
2 65616  51.6324 142.0598 0001038 182.7689 177.3294 15.49574764   228
HJS-7A                  
1 65617U 25209A   25274.31733416  .00000081  00000+0  10317-3 0  9994
2 65617  49.9984 274.7751 0002183 209.0840 150.9952 14.24468128  2182
HJS-7B                  
1 65618U 25209B   25274.87795172  .00000143  00000+0  12987-3 0  9997
2 65618  49.9983 272.4040 0001885 213.1973 146.8823 14.24522708  2253
HJS-7C                  
1 65619U 25209C   25274.87740666  .00000137  00000+0  12694-3 0  9994
2 65619  49.9997 272.3998 0001532 220.4565 139.6234 14.24570838  2249
HJS-7D                  
1 65620U 25209D   25274.87579617  .00000116  00000+0  11786-3 0  9990
2 65620  50.0021 272.3910 0001544 231.6259 128.4516 14.24729000  2249
STARLINK-35247          
1 65622U 25210A   25274.83335647 -.01994608  00000+0 -18997-1 0  9993
2 65622  53.1587 329.2046 0001167  73.3957 146.3083 15.69284685  3379
STARLINK-35239          
1 65623U 25210B   25274.83335647 -.01973296  00000+0 -18781-1 0  9995
2 65623  53.1587 329.2002 0001239  75.0440 146.5892 15.69265856  3377
STARLINK-35151          
1 65624U 25210C   25274.83335647 -.01986245  00000+0 -18909-1 0  9996
2 65624  53.1585 329.1843 0001325  76.1689 153.1180 15.69280475  3290
STARLINK-35153          
1 65625U 25210D   25274.83335647 -.01992778  00000+0 -18978-1 0  9991
2 65625  53.1586 329.1762 0001240  71.8853 161.2362 15.69283477  3290
STARLINK-35225          
1 65626U 25210E   25274.83335647 -.01994042  00000+0 -18990-1 0  9992
2 65626  53.1588 329.1963 0001352  74.7463 148.7920 15.69283670  3373
STARLINK-35217          
1 65627U 25210F   25274.83335647 -.01919398  00000+0 -18243-1 0  9995
2 65627  53.1587 329.1920 0001441  73.0476 152.4626 15.69210412  3370
STARLINK-35128          
1 65628U 25210G   25274.83335647 -.01993337  00000+0 -18985-1 0  9994
2 65628  53.1587 329.1802 0001186  70.5178 160.6892 15.69282433  3375
STARLINK-35135          
1 65629U 25210H   25274.83335647 -.01990184  00000+0 -18950-1 0  9994
2 65629  53.1587 329.1724 0001352  79.4210 155.6187 15.69281472  3372
STARLINK-34877          
1 65630U 25210J   25274.83335647 -.01995249  00000+0 -19003-1 0  9993
2 65630  53.1585 329.1882 0001168  79.1477 148.2226 15.69286058  3371
STARLINK-35104          
1 65631U 25210K   25274.83335647 -.01997133  00000+0 -19022-1 0  9999
2 65631  53.1588 329.1683 0001263  76.2612 160.6928 15.69286777  3374
STARLINK-35117          
1 65632U 25210L   25274.83335647 -.02002162  00000+0 -19074-1 0  9997
2 65632  53.1587 329.1643 0001166  76.0063 162.8627 15.69290729  3372
STARLINK-35103          
1 65633U 25210M   25274.83335647 -.01951351  00000+0 -18562-1 0  9991
2 65633  53.1589 329.1561 0001175  80.7831 161.9521 15.69244476  3370
STARLINK-35123          
1 65634U 25210N   25274.83335647 -.01993941  00000+0 -18989-1 0  9996
2 65634  53.1587 329.1603 0001315  83.3590 157.4303 15.69284454  3371
STARLINK-35150          
1 65635U 25210P   25273.89963838  .00259074  00000+0  17420-2 0  9990
2 65635  53.1575 333.7641 0003221  20.2292 339.8855 15.73883408  3208
STARLINK-35209          
1 65636U 25210Q   25274.83335647 -.01998061  00000+0 -19031-1 0  9995
2 65636  53.1586 329.1477 0001274  76.5005 170.0349 15.69288677  3372
STARLINK-35147          
1 65637U 25210R   25274.83335647 -.01997685  00000+0 -19028-1 0  9993
2 65637  53.1586 329.1436 0001262  78.1601 170.2948 15.69287121  3375
STARLINK-35213          
1 65638U 25210S   25274.83335647 -.01993489  00000+0 -18985-1 0  9993
2 65638  53.1585 329.1397 0001131  83.0198 167.3526 15.69285129  3377
STARLINK-35127          
1 65639U 25210T   25274.83335647 -.01971812  00000+0 -18770-1 0  9992
2 65639  53.1585 329.1357 0001060  80.9691 171.3393 15.69262262  3379
STARLINK-35091          
1 65640U 25210U   25274.83335647 -.01991264  00000+0 -18962-1 0  9990
2 65640  53.1585 329.1318 0001264  80.6805 173.5267 15.69282735  3379
STARLINK-35134          
1 65641U 25210V   25274.83335647 -.01989653  00000+0 -18945-1 0  9991
2 65641  53.1585 329.1277 0001260  80.2886 175.8356 15.69281687  3374
STARLINK-35109          
1 65642U 25210W   25274.83335647 -.01990672  00000+0 -18956-1 0  9997
2 65642  53.1586 329.1236 0001233  74.8620 183.1774 15.69282590  3376
STARLINK-35062          
1 65643U 25210X   25274.83335647 -.01996347  00000+0 -19012-1 0  9997
2 65643  53.1588 329.1197 0001123  76.4844 183.4645 15.69290375  3379
STARLINK-35141          
1 65644U 25210Y   25274.83335647 -.01958101  00000+0 -18633-1 0  9992
2 65644  53.1588 329.1121 0000815  73.7176 190.1002 15.69250442  3375
STARLINK-35237          
1 65645U 25210Z   25274.83335647 -.02000440  00000+0 -19057-1 0  9999
2 65645  53.1589 329.1158 0001068  76.2661 185.6042 15.69290568  3371
STARLINK-35183          
1 65646U 25210AA  25274.83335647 -.01978985  00000+0 -18840-1 0  9996
2 65646  53.1587 329.1078 0001089  73.8631 191.8540 15.69270657  3373
STARLINK-35202          
1 65647U 25210AB  25274.83335647 -.01990650  00000+0 -18956-1 0  9998
2 65647  53.1587 329.1035 0001188  73.5593 194.0633 15.69283126  3374
STARLINK-34868          
1 65648U 25210AC  25274.83335647 -.01995840  00000+0 -19010-1 0  9997
2 65648  53.1586 329.0955 0001144  74.2098 197.2483 15.69285370  3375
STARLINK-35079          
1 65649U 25210AD  25274.83335647 -.01977668  00000+0 -18827-1 0  9991
2 65649  53.1587 329.0992 0001043  80.5444 189.0068 15.69270180  3372
STARLINK-35328          
1 65652U 25211A   25274.83335647 -.02360638  00000+0 -18260-1 0  9991
2 65652  97.5978 315.9556 0001671  88.3605 169.2261 15.75263511  2937
STARLINK-34210          
1 65653U 25211B   25274.83335647 -.02359601  00000+0 -18254-1 0  9993
2 65653  97.5975 315.9571 0001660  93.4114 168.0220 15.75259150  3030
STARLINK-35227          
1 65654U 25211C   25274.83335647 -.02358012  00000+0 -18239-1 0  9992
2 65654  97.5980 315.9592 0001626  84.6943 180.5746 15.75260175  2988
STARLINK-35240          
1 65655U 25211D   25274.83335647 -.02341302  00000+0 -18099-1 0  9991
2 65655  97.5973 315.9562 0001510  89.9820 169.5293 15.75249244  2980
STARLINK-35344          
1 65656U 25211E   25274.83335647 -.02352858  00000+0 -18194-1 0  9996
2 65656  97.5977 315.9585 0001639  81.6878 181.6581 15.75258785  2934
STARLINK-34540          
1 65657U 25211F   25274.83335647 -.02366485  00000+0 -18312-1 0  9990
2 65657  97.5977 315.9594 0001545  85.1031 182.0841 15.75265843  3030
STARLINK-35282          
1 65658U 25211G   25274.83335647 -.02363112  00000+0 -18282-1 0  9991
2 65658  97.5975 315.9612 0001647  75.8510 195.1756 15.75263883  2986
STARLINK-35120          
1 65659U 25211H   25274.83335647 -.02360823  00000+0 -18263-1 0  9997
2 65659  97.5975 315.9604 0001565  85.4815 183.6251 15.75262798  2988
STARLINK-35246          
1 65660U 25211J   25274.83335647 -.02362278  00000+0 -18277-1 0  9990
2 65660  97.5979 315.9627 0001598  70.4135 202.5349 15.75261644  2982
STARLINK-35220          
1 65661U 25211K   25274.83335647 -.02358013  00000+0 -18241-1 0  9994
2 65661  97.5969 315.9626 0001500  87.7920 187.0766 15.75260090  2981
STARLINK-35176          
1 65662U 25211L   25274.83335647 -.02358666  00000+0 -18244-1 0  9992
2 65662  97.5978 315.9637 0001638  71.0890 205.6966 15.75261181  2989
STARLINK-35190          
1 65663U 25211M   25274.83335647 -.02355723  00000+0 -18221-1 0  9999
2 65663  97.5976 315.9647 0001596  74.8883 203.8223 15.75257092  2932
STARLINK-35201          
1 65664U 25211N   25274.83335647 -.02360393  00000+0 -18259-1 0  9990
2 65664  97.5976 315.9656 0001817  93.0964 187.5366 15.75259498  2985
STARLINK-35115          
1 65665U 25211P   25274.83335647 -.02361371  00000+0 -18268-1 0  9998
2 65665  97.5971 315.9655 0001768  94.3290 188.2230 15.75260527  3031
STARLINK-35181          
1 65666U 25211Q   25274.83335647 -.02351446  00000+0 -18185-1 0  9999
2 65666  97.5976 315.9670 0001575  93.0385 191.4328 15.75254679  2989
STARLINK-35361          
1 65667U 25211R   25274.83335647 -.02351739  00000+0 -18187-1 0  9997
2 65667  97.5976 315.9679 0001607  87.3660 199.0239 15.75255524  2982
STARLINK-35351          
1 65668U 25211S   25274.83335647 -.02358319  00000+0 -18241-1 0  9990
2 65668  97.5975 315.9689 0001836  91.3673 196.9442 15.75258549  2988
STARLINK-35353          
1 65669U 25211T   25274.83335647 -.02352791  00000+0 -18194-1 0  9996
2 65669  97.5975 315.9691 0001871  94.6123 195.6221 15.75254176  2980
STARLINK-35359          
1 65670U 25211U   25274.83335647 -.02354334  00000+0 -18208-1 0  9999
2 65670  97.5970 315.9700 0001833  90.7720 201.3816 15.75255023  2770
STARLINK-35194          
1 65671U 25211V   25274.83335647 -.02349770  00000+0 -18172-1 0  9998
2 65671  97.5973 315.9724 0001603  92.6714 203.3228 15.75251534  2984
STARLINK-35198          
1 65672U 25211W   25274.83335647 -.02359595  00000+0 -18253-1 0  9995
2 65672  97.5976 315.9713 0001810  92.0033 202.0702 15.75258231  2988
STARLINK-35177          
1 65673U 25211X   25274.83335647 -.02352448  00000+0 -18192-1 0  9998
2 65673  97.5978 315.9740 0001737  97.3620 202.4689 15.75255156  2823
STARLINK-35254          
1 65674U 25211Y   25274.83335647 -.02351323  00000+0 -18186-1 0  9993
2 65674  97.5972 315.9748 0001460  90.5575 211.1938 15.75253337  2983
STARLINK-34749          
1 65675U 25211Z   25274.25003472 -.02237622  00000+0 -15109-1 0  9995
2 65675  97.5964 315.3328 0002046 112.8429 116.3376 15.78122041  2937
